ONEWEB-0641             
1 55805U 23029K   25241.28415044  .00000077  00000+0  15908-3 0  9990
2 55805  87.9277   2.9931 0001591  94.9017 265.2298 13.19726370120416
ONEWEB-0642             
1 55806U 23029L   25241.27940178 -.00000177  00000+0 -47386-3 0  9999
2 55806  87.9269   3.0295 0000975  81.0065 279.1178 13.19725159120402
ONEWEB-0643             
1 55807U 23029M   25241.23239442  .00000047  00000+0  92685-4 0  9998
2 55807  87.9096 347.8533 0001057 104.9246 255.2001 13.14503168121032
ONEWEB-0644             
1 55808U 23029N   25241.27466495  .00000161  00000+0  37014-3 0  9994
2 55808  87.9275   3.0371 0001306  91.4197 268.7086 13.19723476120408
ONEWEB-0645             
1 55809U 23029P   25241.27073536  .00000087  00000+0  18511-3 0  9993
2 55809  87.9262   3.0255 0001770  87.5016 272.6319 13.19726018120405
ONEWEB-0646             
1 55810U 23029Q   25241.30825833  .00000102  00000+0  22403-3 0  9997
2 55810  87.9264   3.0131 0001555  97.5757 262.5552 13.19254829120397
ONEWEB-0648             
1 55811U 23029R   25241.27680572  .00000268  00000+0  68898-3 0  9994
2 55811  87.9082 347.8174 0001370  66.5645 293.5628 13.14504594121042
ONEWEB-0649             
1 55812U 23029S   25241.26362394  .00000080  00000+0  16713-3 0  9994
2 55812  87.9273   3.0147 0001494  84.8607 275.2696 13.19725814120422
ONEWEB-0650             
1 55813U 23029T   25241.10725437  .00000104  00000+0  22631-3 0  9992
2 55813  87.9272   3.0565 0001577  96.2233 263.9080 13.19725698120375
ONEWEB-0652             
1 55814U 23029U   25241.25777108 -.00000124  00000+0 -37025-3 0  9998
2 55814  87.9092 347.8345 0001964 103.1694 256.9655 13.14502712121017
ONEWEB-0653             
1 55815U 23029V   25241.24191663 -.00000103  00000+0 -31272-3 0  9999
2 55815  87.9095 347.8262 0002047  98.0491 262.0871 13.14503793121040
ONEWEB-0654             
1 55816U 23029W   25241.23714601 -.00000006  00000+0 -50798-4 0  9999
2 55816  87.9092 347.8257 0002239 103.9705 256.1674 13.14504782121065
ONEWEB-0656             
1 55817U 23029X   25241.23741091  .00000033  00000+0  48375-4 0  9999
2 55817  87.9299 332.6126 0002337 103.7841 256.3553 13.20771721122616
ONEWEB-0657             
1 55818U 23029Y   25241.25415402  .00000038  00000+0  62910-4 0  9992
2 55818  87.9271   3.0321 0001930 122.8356 237.2963 13.19722642120408
ONEWEB-0658             
1 55819U 23029Z   25241.24940928  .00000067  00000+0  13476-3 0  9992
2 55819  87.9283   2.9691 0001324  91.2821 268.8463 13.19725919120419
ONEWEB-0660             
1 55820U 23029AA  25241.29107756  .00000313  00000+0  80880-3 0  9990
2 55820  87.9095 347.7873 0001799  88.5293 271.6043 13.14503863121056
ONEWEB-0661             
1 55821U 23029AB  25241.24984382 -.00000110  00000+0 -32989-3 0  9998
2 55821  87.9098 347.8676 0001940  88.7875 271.3477 13.14502545121030
