[{"OBJECT_NAME":"ONEWEB-0641","OBJECT_ID":"2023-029K","EPOCH":"2025-08-29T06:49:10.598016","MEAN_MOTION":13.1972637,"ECCENTRICITY":0.00015914,"INCLINATION":87.9277,"RA_OF_ASC_NODE":2.9931,"ARG_OF_PERICENTER":94.9017,"MEAN_ANOMALY":265.2298,"EPHEMERIS_TYPE":0,"CLASSIFICATION_TYPE":"U","NORAD_CAT_ID":55805,"ELEMENT_SET_NO":999,"REV_AT_EPOCH":12041,"BSTAR":0.00015908068,"MEAN_MOTION_DOT":7.7e-7,"MEAN_MOTION_DDOT":0},{"OBJECT_NAME":"ONEWEB-0642","OBJECT_ID":"2023-029L","EPOCH":"2025-08-29T06:42:20.313792","MEAN_MOTION":13.19725159,"ECCENTRICITY":9.756e-5,"INCLINATION":87.9269,"RA_OF_ASC_NODE":3.0295,"ARG_OF_PERICENTER":81.0065,"MEAN_ANOMALY":279.1178,"EPHEMERIS_TYPE":0,"CLASSIFICATION_TYPE":"U","NORAD_CAT_ID":55806,"ELEMENT_SET_NO":999,"REV_AT_EPOCH":12040,"BSTAR":-0.0004738582,"MEAN_MOTION_DOT":-1.77e-6,"MEAN_MOTION_DDOT":0},{"OBJECT_NAME":"ONEWEB-0643","OBJECT_ID":"2023-029M","EPOCH":"2025-08-29T05:34:38.877888","MEAN_MOTION":13.14503168,"ECCENTRICITY":0.00010577,"INCLINATION":87.9096,"RA_OF_ASC_NODE":347.8533,"ARG_OF_PERICENTER":104.9246,"MEAN_ANOMALY":255.2001,"EPHEMERIS_TYPE":0,"CLASSIFICATION_TYPE":"U","NORAD_CAT_ID":55807,"ELEMENT_SET_NO":999,"REV_AT_EPOCH":12103,"BSTAR":9.2685272e-5,"MEAN_MOTION_DOT":4.7e-7,"MEAN_MOTION_DDOT":0},{"OBJECT_NAME":"ONEWEB-0644","OBJECT_ID":"2023-029N","EPOCH":"2025-08-29T06:35:31.051680","MEAN_MOTION":13.19723476,"ECCENTRICITY":0.00013065,"INCLINATION":87.9275,"RA_OF_ASC_NODE":3.0371,"ARG_OF_PERICENTER":91.4197,"MEAN_ANOMALY":268.7086,"EPHEMERIS_TYPE":0,"CLASSIFICATION_TYPE":"U","NORAD_CAT_ID":55808,"ELEMENT_SET_NO":999,"REV_AT_EPOCH":12040,"BSTAR":0.00037014128,"MEAN_MOTION_DOT":1.61e-6,"MEAN_MOTION_DDOT":0},{"OBJECT_NAME":"ONEWEB-0645","OBJECT_ID":"2023-029P","EPOCH":"2025-08-29T06:29:51.535104","MEAN_MOTION":13.19726018,"ECCENTRICITY":0.00017708,"INCLINATION":87.9262,"RA_OF_ASC_NODE":3.0255,"ARG_OF_PERICENTER":87.5016,"MEAN_ANOMALY":272.6319,"EPHEMERIS_TYPE":0,"CLASSIFICATION_TYPE":"U","NORAD_CAT_ID":55809,"ELEMENT_SET_NO":999,"REV_AT_EPOCH":12040,"BSTAR":0.00018511058,"MEAN_MOTION_DOT":8.7e-7,"MEAN_MOTION_DDOT":0},{"OBJECT_NAME":"ONEWEB-0646","OBJECT_ID":"2023-029Q","EPOCH":"2025-08-29T07:23:53.519712","MEAN_MOTION":13.19254829,"ECCENTRICITY":0.0001555,"INCLINATION":87.9264,"RA_OF_ASC_NODE":3.0131,"ARG_OF_PERICENTER":97.5757,"MEAN_ANOMALY":262.5552,"EPHEMERIS_TYPE":0,"CLASSIFICATION_TYPE":"U","NORAD_CAT_ID":55810,"ELEMENT_SET_NO":999,"REV_AT_EPOCH":12039,"BSTAR":0.00022403183,"MEAN_MOTION_DOT":1.02e-6,"MEAN_MOTION_DDOT":0},{"OBJECT_NAME":"ONEWEB-0648","OBJECT_ID":"2023-029R","EPOCH":"2025-08-29T06:38:36.014208","MEAN_MOTION":13.14504594,"ECCENTRICITY":0.00013701,"INCLINATION":87.9082,"RA_OF_ASC_NODE":347.8174,"ARG_OF_PERICENTER":66.5645,"MEAN_ANOMALY":293.5628,"EPHEMERIS_TYPE":0,"CLASSIFICATION_TYPE":"U","NORAD_CAT_ID":55811,"ELEMENT_SET_NO":999,"REV_AT_EPOCH":12104,"BSTAR":0.00068897599,"MEAN_MOTION_DOT":2.68e-6,"MEAN_MOTION_DDOT":0},{"OBJECT_NAME":"ONEWEB-0649","OBJECT_ID":"2023-029S","EPOCH":"2025-08-29T06:19:37.108416","MEAN_MOTION":13.19725814,"ECCENTRICITY":0.00014946,"INCLINATION":87.9273,"RA_OF_ASC_NODE":3.0147,"ARG_OF_PERICENTER":84.8607,"MEAN_ANOMALY":275.2696,"EPHEMERIS_TYPE":0,"CLASSIFICATION_TYPE":"U","NORAD_CAT_ID":55812,"ELEMENT_SET_NO":999,"REV_AT_EPOCH":12042,"BSTAR":0.00016713174,"MEAN_MOTION_DOT":8.0e-7,"MEAN_MOTION_DDOT":0},{"OBJECT_NAME":"ONEWEB-0650","OBJECT_ID":"2023-029T","EPOCH":"2025-08-29T02:34:26.777568","MEAN_MOTION":13.19725698,"ECCENTRICITY":0.00015772,"INCLINATION":87.9272,"RA_OF_ASC_NODE":3.0565,"ARG_OF_PERICENTER":96.2233,"MEAN_ANOMALY":263.908,"EPHEMERIS_TYPE":0,"CLASSIFICATION_TYPE":"U","NORAD_CAT_ID":55813,"ELEMENT_SET_NO":999,"REV_AT_EPOCH":12037,"BSTAR":0.00022631053,"MEAN_MOTION_DOT":1.04e-6,"MEAN_MOTION_DDOT":0},{"OBJECT_NAME":"ONEWEB-0652","OBJECT_ID":"2023-029U","EPOCH":"2025-08-29T06:11:11.421312","MEAN_MOTION":13.14502712,"ECCENTRICITY":0.00019647,"INCLINATION":87.9092,"RA_OF_ASC_NODE":347.8345,"ARG_OF_PERICENTER":103.1694,"MEAN_ANOMALY":256.9655,"EPHEMERIS_TYPE":0,"CLASSIFICATION_TYPE":"U","NORAD_CAT_ID":55814,"ELEMENT_SET_NO":999,"REV_AT_EPOCH":12101,"BSTAR":-0.00037025078,"MEAN_MOTION_DOT":-1.24e-6,"MEAN_MOTION_DDOT":0},{"OBJECT_NAME":"ONEWEB-0653","OBJECT_ID":"2023-029V","EPOCH":"2025-08-29T05:48:21.596832","MEAN_MOTION":13.14503793,"ECCENTRICITY":0.00020476,"INCLINATION":87.9095,"RA_OF_ASC_NODE":347.8262,"ARG_OF_PERICENTER":98.0491,"MEAN_ANOMALY":262.0871,"EPHEMERIS_TYPE":0,"CLASSIFICATION_TYPE":"U","NORAD_CAT_ID":55815,"ELEMENT_SET_NO":999,"REV_AT_EPOCH":12104,"BSTAR":-0.00031272163,"MEAN_MOTION_DOT":-1.03e-6,"MEAN_MOTION_DDOT":0},{"OBJECT_NAME":"ONEWEB-0654","OBJECT_ID":"2023-029W","EPOCH":"2025-08-29T05:41:29.415264","MEAN_MOTION":13.14504782,"ECCENTRICITY":0.00022392,"INCLINATION":87.9092,"RA_OF_ASC_NODE":347.8257,"ARG_OF_PERICENTER":103.9705,"MEAN_ANOMALY":256.1674,"EPHEMERIS_TYPE":0,"CLASSIFICATION_TYPE":"U","NORAD_CAT_ID":55816,"ELEMENT_SET_NO":999,"REV_AT_EPOCH":12106,"BSTAR":-5.079812e-5,"MEAN_MOTION_DOT":-6.0e-8,"MEAN_MOTION_DDOT":0},{"OBJECT_NAME":"ONEWEB-0656","OBJECT_ID":"2023-029X","EPOCH":"2025-08-29T05:41:52.302624","MEAN_MOTION":13.20771721,"ECCENTRICITY":0.00023371,"INCLINATION":87.9299,"RA_OF_ASC_NODE":332.6126,"ARG_OF_PERICENTER":103.7841,"MEAN_ANOMALY":256.3553,"EPHEMERIS_TYPE":0,"CLASSIFICATION_TYPE":"U","NORAD_CAT_ID":55817,"ELEMENT_SET_NO":999,"REV_AT_EPOCH":12261,"BSTAR":4.8375458e-5,"MEAN_MOTION_DOT":3.3e-7,"MEAN_MOTION_DDOT":0},{"OBJECT_NAME":"ONEWEB-0657","OBJECT_ID":"2023-029Y","EPOCH":"2025-08-29T06:05:58.907328","MEAN_MOTION":13.19722642,"ECCENTRICITY":0.00019308,"INCLINATION":87.9271,"RA_OF_ASC_NODE":3.0321,"ARG_OF_PERICENTER":122.8356,"MEAN_ANOMALY":237.2963,"EPHEMERIS_TYPE":0,"CLASSIFICATION_TYPE":"U","NORAD_CAT_ID":55818,"ELEMENT_SET_NO":999,"REV_AT_EPOCH":12040,"BSTAR":6.2909636e-5,"MEAN_MOTION_DOT":3.8e-7,"MEAN_MOTION_DDOT":0},{"OBJECT_NAME":"ONEWEB-0658","OBJECT_ID":"2023-029Z","EPOCH":"2025-08-29T05:59:08.961792","MEAN_MOTION":13.19725919,"ECCENTRICITY":0.0001324,"INCLINATION":87.9283,"RA_OF_ASC_NODE":2.9691,"ARG_OF_PERICENTER":91.2821,"MEAN_ANOMALY":268.8463,"EPHEMERIS_TYPE":0,"CLASSIFICATION_TYPE":"U","NORAD_CAT_ID":55819,"ELEMENT_SET_NO":999,"REV_AT_EPOCH":12041,"BSTAR":0.00013476416,"MEAN_MOTION_DOT":6.7e-7,"MEAN_MOTION_DDOT":0},{"OBJECT_NAME":"ONEWEB-0660","OBJECT_ID":"2023-029AA","EPOCH":"2025-08-29T06:59:09.101184","MEAN_MOTION":13.14503863,"ECCENTRICITY":0.00017997,"INCLINATION":87.9095,"RA_OF_ASC_NODE":347.7873,"ARG_OF_PERICENTER":88.5293,"MEAN_ANOMALY":271.6043,"EPHEMERIS_TYPE":0,"CLASSIFICATION_TYPE":"U","NORAD_CAT_ID":55820,"ELEMENT_SET_NO":999,"REV_AT_EPOCH":12105,"BSTAR":0.00080879967,"MEAN_MOTION_DOT":3.13e-6,"MEAN_MOTION_DDOT":0},{"OBJECT_NAME":"ONEWEB-0661","OBJECT_ID":"2023-029AB","EPOCH":"2025-08-29T05:59:46.506048","MEAN_MOTION":13.14502545,"ECCENTRICITY":0.00019404,"INCLINATION":87.9098,"RA_OF_ASC_NODE":347.8676,"ARG_OF_PERICENTER":88.7875,"MEAN_ANOMALY":271.3477,"EPHEMERIS_TYPE":0,"CLASSIFICATION_TYPE":"U","NORAD_CAT_ID":55821,"ELEMENT_SET_NO":999,"REV_AT_EPOCH":12103,"BSTAR":-0.00032989432,"MEAN_MOTION_DOT":-1.1e-6,"MEAN_MOTION_DDOT":0}]
